QB50P1                  
1 40025U 14033R   26158.98870316  .00009215  00000+0  45488-3 0  9994
2 40025  98.0970 169.4906 0007153 252.8100 107.2349 15.18121687651632
DTUSAT-2                
1 40030U 14033W   26158.92490948  .00007538  00000+0  40854-3 0  9991
2 40030  98.0866 156.0650 0006110 264.3965  95.6569 15.14901729651283
QB50P2                  
1 40032U 14033Y   26158.98608824  .00007741  00000+0  41770-3 0  9997
2 40032  98.0757 155.2946 0007032 193.2890 166.8157 15.15044033651274
PERSEUS-M1              
1 40039U 14033AF  26158.80352855  .00002406  00000+0  22194-3 0  9997
2 40039  97.9642 102.7818 0010797 337.2410  22.8330 14.95606924649234
POLYITAN-1              
1 40042U 14033AJ  26159.04517619  .00019032  00000+0  59961-3 0  9994
2 40042  98.0952 184.4437 0007909 168.1396 192.0032 15.32938693652194
TIGRISAT                
1 40043U 14033AK  26159.15501159  .00002433  00000+0  28416-3 0  9997
2 40043  97.7825 309.3746 0050717 104.0252 256.6609 14.85126633644284
CANX-4                  
1 40055U 14034C   26158.96497602  .00001108  00000+0  14930-3 0  9990
2 40055  98.3134  33.9390 0013752  45.0821 315.1504 14.81248580643169
CANX-5                  
1 40056U 14034D   26159.09861706  .00001108  00000+0  14925-3 0  9990
2 40056  98.3136  34.1207 0013746  44.8140 315.4179 14.81266002633996
GONETS-M 10             
1 40063U 14036C   26159.21617272  .00000057  00000+0  34023-3 0  9994
2 40063  82.5113 313.2477 0022272 159.4852 200.7127 12.42945420541137
METEOR-M 2              
1 40069U 14037A   26159.20606160  .00000108  00000+0  68589-4 0  9996
2 40069  98.5114 135.2629 0007008  66.0686 294.1225 14.21458677618043
DX1                     
1 40071U 14037C   26159.16106285  .00002059  00000+0  22022-3 0  9995
2 40071  98.3865 120.3156 0006174 310.7711  49.2968 14.89958243644767
UKUBE-1                 
1 40074U 14037F   26158.97845145  .00009011  00000+0  50869-3 0  9996
2 40074  98.4241 161.2838 0002064 144.6148 215.5218 15.13407368647160
GAOFEN-2                
1 40118U 14049A   26159.18982488  .00000311  00000+0  47155-4 0  9993
2 40118  98.0106 223.4055 0005897 262.8434  97.2108 14.80888095637902
BRITE-PL2 (HEWELIUSZ)   
1 40119U 14049B   26158.79938014  .00002922  00000+0  27515-3 0  9993
2 40119  97.9088 270.7280 0015142 136.5124 223.7293 14.94563277640049
CBERS 4                 
1 40336U 14079A   26159.18505821  .00000193  00000+0  81836-4 0  9992
2 40336  98.3530 216.2988 0002042  71.9227 288.2182 14.35507116602662
SMAP                    
1 40376U 15003A   26159.19094500  .00000463  00000+0  98626-4 0  9997
2 40376  98.1276 166.4130 0001266  93.1601 266.9746 14.63358828606304
GONETS-M 11             
1 40552U 15020A   26159.15363269  .00000089  00000+0  56852-3 0  9997
2 40552  82.4873  36.6207 0017003  24.7191 335.4699 12.42877113507613
GONETS-M 12             
1 40553U 15020B   26159.12722355  .00000050  00000+0  29075-3 0  9995
2 40553  82.4906  37.7586 0015760  10.3322 349.8079 12.42891080507607
GONETS-M 13             
1 40554U 15020C   26159.18105047  .00000073  00000+0  45438-3 0  9991
2 40554  82.4868  36.3428 0014088 355.9351   4.1612 12.42870165507589
DMC3-FM1                
1 40715U 15032A   26159.18069560  .00000786  00000+0  96471-4 0  9997
2 40715  97.6469  24.7083 0007169  82.9231 277.2800 14.85728600588572
DMC3-FM2                
1 40716U 15032B   26159.13543103  .00001175  00000+0  14117-3 0  9992
2 40716  97.6525  26.2325 0007725  87.5359 272.6741 14.85736662588561
DMC3-FM3                
1 40717U 15032C   26159.15869480  .00000204  00000+0  29421-4 0  9991
2 40717  97.6577  28.0020 0006867  86.4088 273.7913 14.85722840588571
CARBONITE 1 (CBNT-1)    
1 40718U 15032D   26159.21216917  .00001693  00000+0  21147-3 0  9999
2 40718  97.6510 337.6551 0013807 330.0860  29.9565 14.83561197588012
LILACSAT-2              
1 40908U 15049K   26159.17715811  .00018201  00000+0  31311-3 0  9997
2 40908  97.4659 195.6778 0005277 288.9416  71.1263 15.51148907594352
COSMOS 2507 (RODNIK-S *)
1 40920U 15050A   26159.13635898  .00000074  00000+0  45952-3 0  9990
2 40920  82.4922  85.3049 0010591  15.6827 344.4579 12.42926657485735
COSMOS 2508 (RODNIK-S *)
1 40921U 15050B   26159.17178682  .00000096  00000+0  61800-3 0  9992
2 40921  82.4874  83.7913 0015398  45.3109 314.9222 12.42914105485728
COSMOS 2509 (RODNIK-S *)
1 40922U 15050C   26159.19190170  .00000098  00000+0  63836-3 0  9994
2 40922  82.4883  83.8802 0015845  61.2514 299.0155 12.42883638485769
